STARLINK-36412          
1 67518U 26012AB  26164.60125829  .00025426  00000+0  92906-3 0  9997
2 67518  42.9891 132.4375 0002327 281.1748  78.8842 15.27622148 22438
STARLINK-36415          
1 67519U 26012AC  26164.20509602  .00021543  00000+0  79036-3 0  9994
2 67519  42.9854 134.6134 0003586 283.6810  76.3642 15.27564716 22370
STARLINK-36547          
1 67520U 26012AD  26164.60508698  .00011408  00000+0  42315-3 0  9993
2 67520  42.9899 132.4701 0003484 276.6845  83.3610 15.27600789 22435
STARLINK-36444          
1 67521U 26012AE  26164.21664325  .00015195  00000+0  56032-3 0  9999
2 67521  43.0004 134.7186 0000762 222.6246 137.4547 15.27594781 22377
STARLINK-36587          
1 67532U 26014A   26164.65799771  .00025352  00000+0  78504-3 0  9999
2 67532  97.2861  51.4708 0001844  85.6167 274.5287 15.33442011 23490
STARLINK-36417          
1 67533U 26014B   26164.69605890  .00019432  00000+0  60242-3 0  9994
2 67533  97.2856  51.4178 0002822 121.9456 238.2061 15.33456706 23491
STARLINK-36576          
1 67534U 26014C   26164.68518625  .00024679  00000+0  76443-3 0  9992
2 67534  97.2863  51.4343 0001746  85.6973 274.4469 15.33437312 23494
STARLINK-36574          
1 67535U 26014D   26164.66615493  .00013105  00000+0  40743-3 0  9998
2 67535  97.2866  51.4580 0001846  91.3821 268.7633 15.33453081 23498
STARLINK-36572          
1 67536U 26014E   26164.68791802  .00028345  00000+0  87837-3 0  9997
2 67536  97.2867  51.4309 0001681  87.3456 272.7979 15.33395427 23492
STARLINK-36561          
1 67537U 26014F   26164.67974850  .00027653  00000+0  85587-3 0  9994
2 67537  97.2862  51.4394 0001715  85.1678 274.9761 15.33439649 23490
STARLINK-36397          
1 67538U 26014G   26164.66341041  .00032627  00000+0  10051-2 0  9994
2 67538  97.2860  51.4613 0001449  74.4374 285.7028 15.33554293 23490
STARLINK-36573          
1 67539U 26014H   26164.67702904  .00022315  00000+0  69134-3 0  9995
2 67539  97.2851  51.4453 0002658 107.0860 253.0674 15.33449799 23498
STARLINK-36585          
1 67540U 26014J   26164.67159272  .00023138  00000+0  71713-3 0  9991
2 67540  97.2861  51.4506 0001660  84.8384 275.3048 15.33431857 23493
STARLINK-36579          
1 67541U 26014K   26164.63896443  .00020181  00000+0  62589-3 0  9992
2 67541  97.2861  51.4963 0001925  88.8111 271.3352 15.33437459 23495
STARLINK-35934          
1 67542U 26014L   26164.64440213  .00030039  00000+0  92900-3 0  9997
2 67542  97.2860  51.4910 0001831  88.6613 271.4839 15.33447751 23484
STARLINK-36581          
1 67543U 26014M   26164.67431220  .00023161  00000+0  71729-3 0  9993
2 67543  97.2862  51.4497 0002590 117.6357 242.5149 15.33453995 23499
STARLINK-36565          
1 67544U 26014N   26164.68246736  .00026073  00000+0  80723-3 0  9990
2 67544  97.2864  51.4383 0001782  86.3586 273.7861 15.33441347 23499
STARLINK-36583          
1 67545U 26014P   26164.65527845  .00029949  00000+0  92639-3 0  9995
2 67545  97.2861  51.4749 0001897  81.4339 278.7119 15.33441827 23496
STARLINK-36580          
1 67546U 26014Q   26164.69062359  .00018556  00000+0  57575-3 0  9996
2 67546  97.2866  51.4272 0001503  86.5761 273.5654 15.33440964 23490
STARLINK-36584          
1 67547U 26014R   26164.64984007  .00024139  00000+0  74772-3 0  9997
2 67547  97.2863  51.4827 0001653  99.6369 260.5060 15.33441592 23494
STARLINK-36586          
1 67548U 26014S   26164.64712012  .00029126  00000+0  90092-3 0  9997
2 67548  97.2863  51.4880 0001779  86.0510 274.0936 15.33448793 23493
STARLINK-36564          
1 67549U 26014T   26164.69334235  .00021450  00000+0  66492-3 0  9999
2 67549  97.2867  51.4233 0001606  83.3745 276.7681 15.33442165 23436
STARLINK-36563          
1 67550U 26014U   26164.64168407  .00026700  00000+0  82650-3 0  9999
2 67550  97.2864  51.4934 0001683  79.6604 280.4829 15.33441984 23490
STARLINK-36566          
1 67551U 26014V   26164.69878080  .00014690  00000+0  45652-3 0  9996
2 67551  97.2863  51.4141 0001997 111.4956 248.6500 15.33441222 23489
STARLINK-36567          
1 67552U 26014W   26164.65256015  .00027518  00000+0  85155-3 0  9996
2 67552  97.2861  51.4762 0001756  84.9969 275.1474 15.33445565 23487
STARLINK-36569          
1 67553U 26014X   26164.66071620  .00018869  00000+0  58549-3 0  9991
2 67553  97.2865  51.4679 0001726  83.9350 276.2090 15.33436363 23481
STARLINK-36395          
1 67554U 26014Y   26164.83335647 -.02420423  00000+0 -39524-1 0  9990
2 67554  97.2849  54.4357 0001521 105.6490 238.5649 15.56246399  5989
STARLINK-36559          
1 67555U 26014Z   26164.66888154  .00024856  00000+0  76950-3 0  9990
2 67555  97.2865  51.4560 0002003  92.1232 268.0240 15.33452720 23483
STARLINK-36426          
1 67560U 26014AA  26164.63624417  .00015599  00000+0  48462-3 0  9994
2 67560  97.2870  51.5002 0001558  97.6230 262.5190 15.33437017 23484
STARLINK-36621          
1 67561U 26016A   26164.69299690 -.00000389  00000+0 -97407-5 0  9992
2 67561  97.2850 224.6940 0000067 230.5051 129.6185 15.33431989 21577
