OBJECT_NAME,OBJECT_ID,EPOCH,MEAN_MOTION,ECCENTRICITY,INCLINATION,RA_OF_ASC_NODE,ARG_OF_PERICENTER,MEAN_ANOMALY,EPHEMERIS_TYPE,CLASSIFICATION_TYPE,NORAD_CAT_ID,ELEMENT_SET_NO,REV_AT_EPOCH,BSTAR,MEAN_MOTION_DOT,MEAN_MOTION_DDOT
STARLINK-36412,2026-012AB,2026-06-13T14:25:48.716256,15.27622148,.0002327,42.9891,132.4375,281.1748,78.8842,0,U,67518,999,2243,.92906E-3,.25426E-3,0
STARLINK-36415,2026-012AC,2026-06-13T04:55:20.296128,15.27564716,.00035865,42.9854,134.6134,283.6810,76.3642,0,U,67519,999,2237,.79036265E-3,.21543E-3,0
STARLINK-36547,2026-012AD,2026-06-13T14:31:19.515072,15.27600789,.0003484,42.9899,132.4701,276.6845,83.3610,0,U,67520,999,2243,.42315E-3,.11408E-3,0
STARLINK-36444,2026-012AE,2026-06-13T05:11:57.976800,15.27594781,.00007623,43.0004,134.7186,222.6246,137.4547,0,U,67521,999,2237,.56032116E-3,.15195E-3,0
STARLINK-36587,2026-014A,2026-06-13T15:47:31.002144,15.33442011,.0001844,97.2861,51.4708,85.6167,274.5287,0,U,67532,999,2349,.78504E-3,.25352E-3,0
STARLINK-36417,2026-014B,2026-06-13T16:42:19.488960,15.33456706,.0002822,97.2856,51.4178,121.9456,238.2061,0,U,67533,999,2349,.60242E-3,.19432E-3,0
STARLINK-36576,2026-014C,2026-06-13T16:26:40.092000,15.33437312,.0001746,97.2863,51.4343,85.6973,274.4469,0,U,67534,999,2349,.76443E-3,.24679E-3,0
STARLINK-36574,2026-014D,2026-06-13T15:59:15.785952,15.33453081,.0001846,97.2866,51.4580,91.3821,268.7633,0,U,67535,999,2349,.40743E-3,.13105E-3,0
STARLINK-36572,2026-014E,2026-06-13T16:30:36.116928,15.33395427,.0001681,97.2867,51.4309,87.3456,272.7979,0,U,67536,999,2349,.87837E-3,.28345E-3,0
STARLINK-36561,2026-014F,2026-06-13T16:18:50.270400,15.33439649,.0001715,97.2862,51.4394,85.1678,274.9761,0,U,67537,999,2349,.85587E-3,.27653E-3,0
STARLINK-36397,2026-014G,2026-06-13T15:55:18.659424,15.33554293,.0001449,97.2860,51.4613,74.4374,285.7028,0,U,67538,999,2349,.10051E-2,.32627E-3,0
STARLINK-36573,2026-014H,2026-06-13T16:14:55.309056,15.33449799,.0002658,97.2851,51.4453,107.0860,253.0674,0,U,67539,999,2349,.69134E-3,.22315E-3,0
STARLINK-36585,2026-014J,2026-06-13T16:07:05.611008,15.33431857,.000166,97.2861,51.4506,84.8384,275.3048,0,U,67540,999,2349,.71713E-3,.23138E-3,0
STARLINK-36579,2026-014K,2026-06-13T15:20:06.526752,15.33437459,.0001925,97.2861,51.4963,88.8111,271.3352,0,U,67541,999,2349,.62589E-3,.20181E-3,0
STARLINK-35934,2026-014L,2026-06-13T15:27:56.344032,15.33447751,.0001831,97.2860,51.4910,88.6613,271.4839,0,U,67542,999,2348,.929E-3,.30039E-3,0
STARLINK-36581,2026-014M,2026-06-13T16:11:00.574080,15.33453995,.000259,97.2862,51.4497,117.6357,242.5149,0,U,67543,999,2349,.71729E-3,.23161E-3,0
STARLINK-36565,2026-014N,2026-06-13T16:22:45.179904,15.33441347,.0001782,97.2864,51.4383,86.3586,273.7861,0,U,67544,999,2349,.80723E-3,.26073E-3,0
STARLINK-36583,2026-014P,2026-06-13T15:43:36.058080,15.33441827,.0001897,97.2861,51.4749,81.4339,278.7119,0,U,67545,999,2349,.92639E-3,.29949E-3,0
STARLINK-36580,2026-014Q,2026-06-13T16:34:29.878176,15.33440964,.0001503,97.2866,51.4272,86.5761,273.5654,0,U,67546,999,2349,.57575E-3,.18556E-3,0
STARLINK-36584,2026-014R,2026-06-13T15:35:46.182048,15.33441592,.0001653,97.2863,51.4827,99.6369,260.5060,0,U,67547,999,2349,.74772E-3,.24139E-3,0
STARLINK-36586,2026-014S,2026-06-13T15:31:51.178368,15.33448793,.0001779,97.2863,51.4880,86.0510,274.0936,0,U,67548,999,2349,.90092E-3,.29126E-3,0
STARLINK-36564,2026-014T,2026-06-13T16:38:24.779040,15.33442165,.0001606,97.2867,51.4233,83.3745,276.7681,0,U,67549,999,2343,.66492E-3,.2145E-3,0
STARLINK-36563,2026-014U,2026-06-13T15:24:01.503648,15.33441984,.0001683,97.2864,51.4934,79.6604,280.4829,0,U,67550,999,2349,.8265E-3,.267E-3,0
STARLINK-36566,2026-014V,2026-06-13T16:46:14.661120,15.33441222,.0001997,97.2863,51.4141,111.4956,248.6500,0,U,67551,999,2348,.45652E-3,.1469E-3,0
STARLINK-36567,2026-014W,2026-06-13T15:39:41.196960,15.33445565,.0001756,97.2861,51.4762,84.9969,275.1474,0,U,67552,999,2348,.85155E-3,.27518E-3,0
STARLINK-36569,2026-014X,2026-06-13T15:51:25.879680,15.33436363,.0001726,97.2865,51.4679,83.9350,276.2090,0,U,67553,999,2348,.58549E-3,.18869E-3,0
STARLINK-36395,2026-014Y,2026-06-13T20:00:01.999008,15.56246399,.0001521,97.2849,54.4357,105.6490,238.5649,0,U,67554,999,598,-.39524E-1,-.2420423E-1,0
STARLINK-36559,2026-014Z,2026-06-13T16:03:11.365056,15.33452720,.0002003,97.2865,51.4560,92.1232,268.0240,0,U,67555,999,2348,.7695E-3,.24856E-3,0
STARLINK-36426,2026-014AA,2026-06-13T15:16:11.496288,15.33437017,.0001558,97.2870,51.5002,97.6230,262.5190,0,U,67560,999,2348,.48462E-3,.15599E-3,0
STARLINK-36621,2026-016A,2026-06-13T16:37:54.932160,15.33431989,.0000067,97.2850,224.6940,230.5051,129.6185,0,U,67561,999,2157,-.97407E-5,-.389E-5,0
